<?xml version="1.0" encoding="UTF-8"?>
<ndm xmlns:xsi="http://www.w3.org/2001/XMLSchema-instance" xsi:noNamespaceSchemaLocation="https://sanaregistry.org/r/ndmxml_unqualified/ndmxml-2.0.0-master-2.0.xsd">
<omm id="CCSDS_OMM_VERS" version="2.0">
<header><CREATION_DATE/><ORIGINATOR/></header><body><segment><metadata><OBJECT_NAME>ORBCOMM FM05 [-]</OBJECT_NAME><OBJECT_ID>1997-084F</OBJECT_ID><CENTER_NAME>EARTH</CENTER_NAME><REF_FRAME>TEME</REF_FRAME><TIME_SYSTEM>UTC</TIME_SYSTEM><MEAN_ELEMENT_THEORY>SGP4</MEAN_ELEMENT_THEORY></metadata><data><meanElements><EPOCH>2024-04-18T10:43:53.374656</EPOCH><MEAN_MOTION>14.42517235</MEAN_MOTION><ECCENTRICITY>.0003935</ECCENTRICITY><INCLINATION>45.0139</INCLINATION><RA_OF_ASC_NODE>242.0324</RA_OF_ASC_NODE><ARG_OF_PERICENTER>239.1861</ARG_OF_PERICENTER><MEAN_ANOMALY>120.8602</MEAN_ANOMALY></meanElements><tleParameters><EPHEMERIS_TYPE>0</EPHEMERIS_TYPE><CLASSIFICATION_TYPE>U</CLASSIFICATION_TYPE><NORAD_CAT_ID>25117</NORAD_CAT_ID><ELEMENT_SET_NO>999</ELEMENT_SET_NO><REV_AT_EPOCH>37920</REV_AT_EPOCH><BSTAR>.14522E-2</BSTAR><MEAN_MOTION_DOT>.472E-4</MEAN_MOTION_DOT><MEAN_MOTION_DDOT>0</MEAN_MOTION_DDOT></tleParameters></data></segment></body></omm>
<omm id="CCSDS_OMM_VERS" version="2.0">
<header><CREATION_DATE/><ORIGINATOR/></header><body><segment><metadata><OBJECT_NAME>ORBCOMM FM06 [+]</OBJECT_NAME><OBJECT_ID>1997-084G</OBJECT_ID><CENTER_NAME>EARTH</CENTER_NAME><REF_FRAME>TEME</REF_FRAME><TIME_SYSTEM>UTC</TIME_SYSTEM><MEAN_ELEMENT_THEORY>SGP4</MEAN_ELEMENT_THEORY></metadata><data><meanElements><EPOCH>2024-04-18T11:55:52.260096</EPOCH><MEAN_MOTION>14.42540501</MEAN_MOTION><ECCENTRICITY>.0003089</ECCENTRICITY><INCLINATION>45.0130</INCLINATION><RA_OF_ASC_NODE>241.9682</RA_OF_ASC_NODE><ARG_OF_PERICENTER>243.3745</ARG_OF_PERICENTER><MEAN_ANOMALY>227.6546</MEAN_ANOMALY></meanElements><tleParameters><EPHEMERIS_TYPE>0</EPHEMERIS_TYPE><CLASSIFICATION_TYPE>U</CLASSIFICATION_TYPE><NORAD_CAT_ID>25118</NORAD_CAT_ID><ELEMENT_SET_NO>999</ELEMENT_SET_NO><REV_AT_EPOCH>38012</REV_AT_EPOCH><BSTAR>.1629E-2</BSTAR><MEAN_MOTION_DOT>.5315E-4</MEAN_MOTION_DOT><MEAN_MOTION_DDOT>0</MEAN_MOTION_DDOT></tleParameters></data></segment></body></omm>
<omm id="CCSDS_OMM_VERS" version="2.0">
<header><CREATION_DATE/><ORIGINATOR/></header><body><segment><metadata><OBJECT_NAME>ORBCOMM FM07 [-]</OBJECT_NAME><OBJECT_ID>1997-084H</OBJECT_ID><CENTER_NAME>EARTH</CENTER_NAME><REF_FRAME>TEME</REF_FRAME><TIME_SYSTEM>UTC</TIME_SYSTEM><MEAN_ELEMENT_THEORY>SGP4</MEAN_ELEMENT_THEORY></metadata><data><meanElements><EPOCH>2024-04-18T11:10:50.964960</EPOCH><MEAN_MOTION>14.42462819</MEAN_MOTION><ECCENTRICITY>.0004665</ECCENTRICITY><INCLINATION>45.0121</INCLINATION><RA_OF_ASC_NODE>242.6419</RA_OF_ASC_NODE><ARG_OF_PERICENTER>232.0600</ARG_OF_PERICENTER><MEAN_ANOMALY>127.9829</MEAN_ANOMALY></meanElements><tleParameters><EPHEMERIS_TYPE>0</EPHEMERIS_TYPE><CLASSIFICATION_TYPE>U</CLASSIFICATION_TYPE><NORAD_CAT_ID>25119</NORAD_CAT_ID><ELEMENT_SET_NO>999</ELEMENT_SET_NO><REV_AT_EPOCH>38011</REV_AT_EPOCH><BSTAR>.14774E-2</BSTAR><MEAN_MOTION_DOT>.4799E-4</MEAN_MOTION_DOT><MEAN_MOTION_DDOT>0</MEAN_MOTION_DDOT></tleParameters></data></segment></body></omm>
<omm id="CCSDS_OMM_VERS" version="2.0">
<header><CREATION_DATE/><ORIGINATOR/></header><body><segment><metadata><OBJECT_NAME>ORBCOMM FM03 [-]</OBJECT_NAME><OBJECT_ID>1998-007B</OBJECT_ID><CENTER_NAME>EARTH</CENTER_NAME><REF_FRAME>TEME</REF_FRAME><TIME_SYSTEM>UTC</TIME_SYSTEM><MEAN_ELEMENT_THEORY>SGP4</MEAN_ELEMENT_THEORY></metadata><data><meanElements><EPOCH>2024-04-18T14:04:22.697184</EPOCH><MEAN_MOTION>14.32052866</MEAN_MOTION><ECCENTRICITY>.0048871</ECCENTRICITY><INCLINATION>107.9753</INCLINATION><RA_OF_ASC_NODE>344.8591</RA_OF_ASC_NODE><ARG_OF_PERICENTER>270.5145</ARG_OF_PERICENTER><MEAN_ANOMALY>89.0393</MEAN_ANOMALY></meanElements><tleParameters><EPHEMERIS_TYPE>0</EPHEMERIS_TYPE><CLASSIFICATION_TYPE>U</CLASSIFICATION_TYPE><NORAD_CAT_ID>25158</NORAD_CAT_ID><ELEMENT_SET_NO>999</ELEMENT_SET_NO><REV_AT_EPOCH>36320</REV_AT_EPOCH><BSTAR>.10747E-2</BSTAR><MEAN_MOTION_DOT>.28E-4</MEAN_MOTION_DOT><MEAN_MOTION_DDOT>0</MEAN_MOTION_DDOT></tleParameters></data></segment></body></omm>
<omm id="CCSDS_OMM_VERS" version="2.0">
<header><CREATION_DATE/><ORIGINATOR/></header><body><segment><metadata><OBJECT_NAME>ORBCOMM FM04 [+]</OBJECT_NAME><OBJECT_ID>1998-007C</OBJECT_ID><CENTER_NAME>EARTH</CENTER_NAME><REF_FRAME>TEME</REF_FRAME><TIME_SYSTEM>UTC</TIME_SYSTEM><MEAN_ELEMENT_THEORY>SGP4</MEAN_ELEMENT_THEORY></metadata><data><meanElements><EPOCH>2024-04-18T13:53:43.313856</EPOCH><MEAN_MOTION>14.32308474</MEAN_MOTION><ECCENTRICITY>.0044387</ECCENTRICITY><INCLINATION>107.9733</INCLINATION><RA_OF_ASC_NODE>347.7661</RA_OF_ASC_NODE><ARG_OF_PERICENTER>268.4911</ARG_OF_PERICENTER><MEAN_ANOMALY>91.1142</MEAN_ANOMALY></meanElements><tleParameters><EPHEMERIS_TYPE>0</EPHEMERIS_TYPE><CLASSIFICATION_TYPE>U</CLASSIFICATION_TYPE><NORAD_CAT_ID>25159</NORAD_CAT_ID><ELEMENT_SET_NO>999</ELEMENT_SET_NO><REV_AT_EPOCH>36337</REV_AT_EPOCH><BSTAR>.10961E-2</BSTAR><MEAN_MOTION_DOT>.2866E-4</MEAN_MOTION_DOT><MEAN_MOTION_DDOT>0</MEAN_MOTION_DDOT></tleParameters></data></segment></body></omm>
<omm id="CCSDS_OMM_VERS" version="2.0">
<header><CREATION_DATE/><ORIGINATOR/></header><body><segment><metadata><OBJECT_NAME>ORBCOMM FM17 [-]</OBJECT_NAME><OBJECT_ID>1998-046A</OBJECT_ID><CENTER_NAME>EARTH</CENTER_NAME><REF_FRAME>TEME</REF_FRAME><TIME_SYSTEM>UTC</TIME_SYSTEM><MEAN_ELEMENT_THEORY>SGP4</MEAN_ELEMENT_THEORY></metadata><data><meanElements><EPOCH>2024-04-18T09:26:23.343936</EPOCH><MEAN_MOTION>14.33024078</MEAN_MOTION><ECCENTRICITY>.0003787</ECCENTRICITY><INCLINATION>44.9941</INCLINATION><RA_OF_ASC_NODE>99.2417</RA_OF_ASC_NODE><ARG_OF_PERICENTER>270.1092</ARG_OF_PERICENTER><MEAN_ANOMALY>89.9320</MEAN_ANOMALY></meanElements><tleParameters><EPHEMERIS_TYPE>0</EPHEMERIS_TYPE><CLASSIFICATION_TYPE>U</CLASSIFICATION_TYPE><NORAD_CAT_ID>25413</NORAD_CAT_ID><ELEMENT_SET_NO>999</ELEMENT_SET_NO><REV_AT_EPOCH>34219</REV_AT_EPOCH><BSTAR>.9535E-3</BSTAR><MEAN_MOTION_DOT>.2495E-4</MEAN_MOTION_DOT><MEAN_MOTION_DDOT>0</MEAN_MOTION_DDOT></tleParameters></data></segment></body></omm>
<omm id="CCSDS_OMM_VERS" version="2.0">
<header><CREATION_DATE/><ORIGINATOR/></header><body><segment><metadata><OBJECT_NAME>ORBCOMM FM18 [-]</OBJECT_NAME><OBJECT_ID>1998-046B</OBJECT_ID><CENTER_NAME>EARTH</CENTER_NAME><REF_FRAME>TEME</REF_FRAME><TIME_SYSTEM>UTC</TIME_SYSTEM><MEAN_ELEMENT_THEORY>SGP4</MEAN_ELEMENT_THEORY></metadata><data><meanElements><EPOCH>2024-04-17T04:15:42.368544</EPOCH><MEAN_MOTION>14.35744252</MEAN_MOTION><ECCENTRICITY>.0005076</ECCENTRICITY><INCLINATION>44.9945</INCLINATION><RA_OF_ASC_NODE>32.5466</RA_OF_ASC_NODE><ARG_OF_PERICENTER>306.1533</ARG_OF_PERICENTER><MEAN_ANOMALY>53.8844</MEAN_ANOMALY></meanElements><tleParameters><EPHEMERIS_TYPE>0</EPHEMERIS_TYPE><CLASSIFICATION_TYPE>U</CLASSIFICATION_TYPE><NORAD_CAT_ID>25414</NORAD_CAT_ID><ELEMENT_SET_NO>999</ELEMENT_SET_NO><REV_AT_EPOCH>34296</REV_AT_EPOCH><BSTAR>.16705E-2</BSTAR><MEAN_MOTION_DOT>.4735E-4</MEAN_MOTION_DOT><MEAN_MOTION_DDOT>0</MEAN_MOTION_DDOT></tleParameters></data></segment></body></omm>
<omm id="CCSDS_OMM_VERS" version="2.0">
<header><CREATION_DATE/><ORIGINATOR/></header><body><segment><metadata><OBJECT_NAME>ORBCOMM FM19 [+]</OBJECT_NAME><OBJECT_ID>1998-046C</OBJECT_ID><CENTER_NAME>EARTH</CENTER_NAME><REF_FRAME>TEME</REF_FRAME><TIME_SYSTEM>UTC</TIME_SYSTEM><MEAN_ELEMENT_THEORY>SGP4</MEAN_ELEMENT_THEORY></metadata><data><meanElements><EPOCH>2024-04-16T22:56:47.622336</EPOCH><MEAN_MOTION>14.35574737</MEAN_MOTION><ECCENTRICITY>.0003867</ECCENTRICITY><INCLINATION>44.9955</INCLINATION><RA_OF_ASC_NODE>34.9730</RA_OF_ASC_NODE><ARG_OF_PERICENTER>300.9286</ARG_OF_PERICENTER><MEAN_ANOMALY>182.4859</MEAN_ANOMALY></meanElements><tleParameters><EPHEMERIS_TYPE>0</EPHEMERIS_TYPE><CLASSIFICATION_TYPE>U</CLASSIFICATION_TYPE><NORAD_CAT_ID>25415</NORAD_CAT_ID><ELEMENT_SET_NO>999</ELEMENT_SET_NO><REV_AT_EPOCH>34289</REV_AT_EPOCH><BSTAR>.15081E-2</BSTAR><MEAN_MOTION_DOT>.4246E-4</MEAN_MOTION_DOT><MEAN_MOTION_DDOT>0</MEAN_MOTION_DDOT></tleParameters></data></segment></body></omm>

</ndm>
