ORBCOMM FM05 [-]        
1 25117U 97084F   24109.44714554  .00004720  00000+0  14522-2 0  9992
2 25117  45.0139 242.0324 0003935 239.1861 120.8602 14.42517235379201
ORBCOMM FM06 [+]        
1 25118U 97084G   24109.49713264  .00005315  00000+0  16290-2 0  9990
2 25118  45.0130 241.9682 0003089 243.3745 227.6546 14.42540501380124
ORBCOMM FM07 [-]        
1 25119U 97084H   24109.46586765  .00004799  00000+0  14774-2 0  9992
2 25119  45.0121 242.6419 0004665 232.0600 127.9829 14.42462819380117
ORBCOMM FM03 [-]        
1 25158U 98007B   24109.58637381  .00002800  00000+0  10747-2 0  9992
2 25158 107.9753 344.8591 0048871 270.5145  89.0393 14.32052866363204
ORBCOMM FM04 [+]        
1 25159U 98007C   24109.57897354  .00002866  00000+0  10961-2 0  9990
2 25159 107.9733 347.7661 0044387 268.4911  91.1142 14.32308474363371
ORBCOMM FM17 [-]        
1 25413U 98046A   24109.39332574  .00002495  00000+0  95350-3 0  9998
2 25413  44.9941  99.2417 0003787 270.1092  89.9320 14.33024078342198
ORBCOMM FM18 [-]        
1 25414U 98046B   24108.17757371  .00004735  00000+0  16705-2 0  9995
2 25414  44.9945  32.5466 0005076 306.1533  53.8844 14.35744252342961
ORBCOMM FM19 [+]        
1 25415U 98046C   24107.95610674  .00004246  00000+0  15081-2 0  9998
2 25415  44.9955  34.9730 0003867 300.9286 182.4859 14.35574737342892
